[{"OBJECT_NAME":"OTTER","OBJECT_ID":"2025-009Q","EPOCH":"2026-03-09T17:21:07.902432","MEAN_MOTION":15.27809545,"ECCENTRICITY":0.00035728,"INCLINATION":97.4065,"RA_OF_ASC_NODE":151.3812,"ARG_OF_PERICENTER":310.771,"MEAN_ANOMALY":49.3219,"EPHEMERIS_TYPE":0,"CLASSIFICATION_TYPE":"U","NORAD_CAT_ID":62623,"ELEMENT_SET_NO":999,"REV_AT_EPOCH":6372,"BSTAR":0.00045151206,"MEAN_MOTION_DOT":0.00012198,"MEAN_MOTION_DDOT":0},{"OBJECT_NAME":"STARLINK-35372","OBJECT_ID":"2025-262W","EPOCH":"2026-03-09T00:32:38.255136","MEAN_MOTION":15.27593831,"ECCENTRICITY":0.00019973,"INCLINATION":43.0051,"RA_OF_ASC_NODE":299.996,"ARG_OF_PERICENTER":257.8621,"MEAN_ANOMALY":102.2007,"EPHEMERIS_TYPE":0,"CLASSIFICATION_TYPE":"U","NORAD_CAT_ID":66476,"ELEMENT_SET_NO":999,"REV_AT_EPOCH":1869,"BSTAR":0.0014806254,"MEAN_MOTION_DOT":0.00040725,"MEAN_MOTION_DDOT":0}]
