OTTER                   
1 62623U 25009Q   26068.72300813  .00012198  00000+0  45151-3 0  9990
2 62623  97.4065 151.3812 0003573 310.7710  49.3219 15.27809545 63722
STARLINK-35372          
1 66476U 25262W   26068.02266499  .00040725  00000+0  14806-2 0  9994
2 66476  43.0051 299.9960 0001997 257.8621 102.2007 15.27593831 18695
